H1 CPF  1  HTS 2022 12 12 12  8461 larets           NONE
H2  0304206 5557    27944 2022 12 12  0  0  0 2022 12 17  0  0  0   180 1 1  0 0 0
H5  0.0560 
H9 
10 0 59926  59400.00000  0    2178338.786    -288038.452    6693524.480
10 0 59926  59580.00000  0    3169848.963   -1086845.339    6199048.778
10 0 59926  59760.00000  0    4024936.392   -1870237.242    5476744.637
10 0 59926  59940.00000  0    4713226.136   -2605646.157    4553147.132
10 0 59926  60120.00000  0    5211286.308   -3261556.107    3462211.418
10 0 59926  60300.00000  0    5503466.498   -3808868.476    2244065.662
10 0 59926  60480.00000  0    5582410.072   -4222198.143     943511.020
10 0 59926  60660.00000  0    5449214.718   -4481037.244    -391667.063
10 0 59926  60840.00000  0    5113235.761   -4570724.786   -1712507.167
10 0 59926  61020.00000  0    4591541.410   -4483170.211   -2970718.931
10 0 59926  61200.00000  0    3908053.093   -4217295.499   -4120480.348
10 0 59926  61380.00000  0    3092424.755   -3779180.292   -5120107.016
10 0 59926  61560.00000  0    2178725.391   -3181911.370   -5933527.160
10 0 59926  61740.00000  0    1203998.382   -2445156.932   -6531513.819
10 0 59926  61920.00000  0     206764.073   -1594492.929   -6892656.842
10 0 59926  62100.00000  0    -774480.588    -660503.803   -7004054.087
10 0 59926  62280.00000  0   -1702707.822     322302.569   -6861715.619
10 0 59926  62460.00000  0   -2543713.677    1316733.332   -6470688.617
10 0 59926  62640.00000  0   -3267344.534    2284272.553   -5844902.768
10 0 59926  62820.00000  0   -3848566.005    3186533.189   -5006739.084
10 0 59926  63000.00000  0   -4268347.347    3986761.309   -3986314.204
10 0 59926  63180.00000  0   -4514320.343    4651336.857   -2820477.572
10 0 59926  63360.00000  0   -4581179.856    5151209.064   -1551544.561
10 0 59926  63540.00000  0   -4470806.979    5463199.821    -225793.495
10 0 59926  63720.00000  0   -4192094.645    5571105.927    1108230.785
10 0 59926  63900.00000  0   -3760472.530    5466530.031    2401536.630
10 0 59926  64080.00000  0   -3197148.981    5149387.301    3606548.707
10 0 59926  64260.00000  0   -2528104.674    4628054.813    4678915.980
10 0 59926  64440.00000  0   -1782900.145    3919162.041    5579184.757
10 0 59926  64620.00000  0    -993358.308    3047030.845    6274270.326
10 0 59926  64800.00000  0    -192188.343    2042794.844    6738666.937
10 0 59926  64980.00000  0     588381.051     943246.131    6955361.465
10 0 59926  65160.00000  0    1317907.124    -210543.336    6916434.027
10 0 59926  65340.00000  0    1968927.973   -1374774.624    6623333.307
10 0 59926  65520.00000  0    2518005.686   -2504600.156    6086824.990
10 0 59926  65700.00000  0    2946584.630   -3555871.010    5326611.256
10 0 59926  65880.00000  0    3241633.341   -4486890.521    4370625.108
10 0 59926  66060.00000  0    3396046.567   -5260105.894    3254017.248
10 0 59926  66240.00000  0    3408790.503   -5843665.936    2017859.141
10 0 59926  66420.00000  0    3284781.044   -6212769.376     707606.631
10 0 59926  66600.00000  0    3034502.024   -6350733.428    -628613.329
10 0 59926  66780.00000  0    2673385.675   -6249733.314   -1941822.381
10 0 59926  66960.00000  0    2220982.107   -5911166.808   -3184036.969
10 0 59926  67140.00000  0    1699967.819   -5345633.148   -4310051.298
10 0 59926  67320.00000  0    1135047.491   -4572530.227   -5279077.536
10 0 59926  67500.00000  0     551816.828   -3619310.568   -6056177.937
10 0 59926  67680.00000  0     -24363.192   -2520445.291   -6613453.984
10 0 59926  67860.00000  0    -569433.656   -1316145.078   -6930965.246
10 0 59926  68040.00000  0   -1061605.210     -50891.603   -6997368.798
10 0 59926  68220.00000  0   -1482195.999    1228172.088   -6810276.140
10 0 59926  68400.00000  0   -1816318.501    2472944.288   -6376328.271
10 0 59926  68580.00000  0   -2053396.397    3636119.666   -5710994.209
10 0 59926  68760.00000  0   -2187499.834    4672955.485   -4838089.381
10 0 59926  68940.00000  0   -2217487.035    5542995.300   -3789007.424
10 0 59926  69120.00000  0   -2146942.550    6211683.295   -2601667.577
10 0 59926  69300.00000  0   -1983907.875    6651798.252   -1319202.558
10 0 59926  69480.00000  0   -1740414.278    6844638.696      11583.469
10 0 59926  69660.00000  0   -1431833.885    6780890.917    1341933.433
10 0 59926  69840.00000  0   -1076075.679    6461120.128    2622975.490
10 0 59926  70020.00000  0    -692666.161    5895831.934    3807581.823
10 0 59926  70200.00000  0    -301768.720    5105118.513    4852153.741
10 0 59926  70380.00000  0      76808.053    4117902.869    5718269.235
10 0 59926  70560.00000  0     424565.308    2970817.635    6374106.977
10 0 59926  70740.00000  0     725178.809    1706788.602    6795607.509
10 0 59926  70920.00000  0     965238.053     373378.964    6967334.800
10 0 59926  71100.00000  0    1134829.959    -979032.910    6883018.146
10 0 59926  71280.00000  0    1227945.247   -2299176.467    6545771.932
10 0 59926  71460.00000  0    1242693.293   -3536854.436    5967985.260
10 0 59926  71640.00000  0    1181317.114   -4644880.173    5170878.047
10 0 59926  71820.00000  0    1050011.622   -5580909.333    4183736.776
10 0 59926  72000.00000  0     858554.743   -6309107.682    3042854.475
10 0 59926  72180.00000  0     619763.301   -6801581.548    1790190.141
10 0 59926  72360.00000  0     348797.074   -7039494.419     471799.680
10 0 59926  72540.00000  0      62347.074   -7013819.660    -863902.712
10 0 59926  72720.00000  0    -222250.316   -6725676.005   -2167983.508
10 0 59926  72900.00000  0    -487919.913   -6186230.583   -3392827.911
10 0 59926  73080.00000  0    -718729.093   -5416195.169   -4493898.392
10 0 59926  73260.00000  0    -900700.747   -4444944.568   -5431342.858
10 0 59926  73440.00000  0   -1022517.715   -3309316.228   -6171387.691
10 0 59926  73620.00000  0   -1076088.645   -2052159.625   -6687481.267
10 0 59926  73800.00000  0   -1056955.354    -720700.342   -6961164.262
10 0 59926  73980.00000  0    -964530.689     635215.290   -6982657.915
10 0 59926  74160.00000  0    -802159.100    1964938.781   -6751170.277
10 0 59926  74340.00000  0    -577000.011    3218851.387   -6274924.002
10 0 59926  74520.00000  0    -299736.877    4350168.698   -5570907.649
10 0 59926  74700.00000  0      15883.468    5316669.987   -4664341.943
10 0 59926  74880.00000  0     353666.265    6082295.562   -3587861.332
10 0 59926  75060.00000  0     695719.674    6618551.183   -2380414.926
10 0 59926  75240.00000  0    1023313.136    6905652.456   -1085908.800
10 0 59926  75420.00000  0    1317805.846    6933347.105     248376.004
10 0 59926  75600.00000  0    1561599.394    6701356.460    1573533.574
10 0 59926  75780.00000  0    1739060.511    6219402.098    2840872.308
10 0 59926  75960.00000  0    1837365.371    5506816.047    4003760.350
10 0 59926  76140.00000  0    1847221.023    4591746.883    5019398.141
10 0 59926  76320.00000  0    1763422.713    3509994.555    5850434.402
10 0 59926  76500.00000  0    1585217.275    2303545.385    6466345.559
10 0 59926  76680.00000  0    1316461.651    1018890.130    6844545.348
10 0 59926  76860.00000  0     965567.847    -294811.482    6971190.319
10 0 59926  77040.00000  0     545237.885   -1587636.026    6841664.915
10 0 59926  77220.00000  0      71995.981   -2810813.582    6460744.488
10 0 59926  77400.00000  0    -434467.519   -3918590.919    5842421.488
10 0 59926  77580.00000  0    -952111.148   -4869966.129    5009399.200
10 0 59926  77760.00000  0   -1457488.317   -5630240.419    3992283.231
10 0 59926  77940.00000  0   -1926795.358   -6172340.627    2828471.525
10 0 59926  78120.00000  0   -2336970.395   -6477834.477    1560766.785
10 0 59926  78300.00000  0   -2666789.330   -6537589.307     235769.900
10 0 59926  78480.00000  0   -2897898.378   -6352041.796   -1097882.984
10 0 59926  78660.00000  0   -3015730.699   -5931064.668   -2391359.430
10 0 59926  78840.00000  0   -3010261.948   -5293440.003   -3597461.991
10 0 59926  79020.00000  0   -2876565.510   -4465971.618   -4672368.882
10 0 59926  79200.00000  0   -2615142.496   -3482294.982   -5577205.804
10 0 59926  79380.00000  0   -2232021.631   -2381459.019   -6279397.126
10 0 59926  79560.00000  0   -1738630.373   -1206348.345   -6753764.245
10 0 59926  79740.00000  0   -1151445.128      -2013.566   -6983346.248
10 0 59926  79920.00000  0    -491442.098    1186023.840   -6959935.278
10 0 59926  80100.00000  0     216634.994    2313439.997   -6684334.677
10 0 59926  80280.00000  0     945170.571    3338711.742   -6166341.350
10 0 59926  80460.00000  0    1664719.643    4224617.371   -5424447.272
10 0 59926  80640.00000  0    2345164.788    4939586.662   -4485253.333
10 0 59926  80820.00000  0    2956952.447    5458859.398   -3382600.642
10 0 59926  81000.00000  0    3472362.489    5765402.683   -2156423.694
10 0 59926  81180.00000  0    3866758.621    5850540.106    -851349.625
10 0 59926  81360.00000  0    4119754.819    5714251.121     484918.959
10 0 59926  81540.00000  0    4216232.437    5365112.423    1803375.318
10 0 59926  81720.00000  0    4147151.355    4819876.114    3055553.843
10 0 59926  81900.00000  0    3910108.902    4102704.710    4195372.998
10 0 59926  82080.00000  0    3509609.884    3244091.475    5180883.301
10 0 59926  82260.00000  0    2957036.587    2279534.490    5975845.943
10 0 59926  82440.00000  0    2270316.821    1248026.792    6551070.298
10 0 59926  82620.00000  0    1473320.032     190443.478    6885468.840
10 0 59926  82800.00000  0     595001.275    -852100.722    6966806.339
10 0 59926  82980.00000  0    -331671.749   -1839865.476    6792131.968
10 0 59926  83160.00000  0   -1270973.288   -2736016.383    6367877.778
10 0 59926  83340.00000  0   -2185806.945   -3508013.545    5709622.080
10 0 59926  83520.00000  0   -3039177.509   -4128812.924    4841538.021
10 0 59926  83700.00000  0   -3795711.445   -4577845.960    3795529.514
99
